1 01430U 65051A   21107.94031281  .00000014  00000-0  17862-4 0  9997
2 01430  98.3258 230.8036 0056168 349.5173  10.4840 14.40306213924281
1 01430U 65051A   21108.56553893  .00000025  00000-0  21042-4 0  9991
2 01430  98.3259 231.4119 0056131 347.6316  12.3492 14.40306336924379
1 01430U 65051A   21108.84341722  .00000024  00000-0  20885-4 0  9991
2 01430  98.3260 231.6823 0056115 346.7891  13.1825 14.40306376924413
1  1430U 65051A   21109.19076506  .00000023  00000-0  20581-4 0  9997
2  1430  98.3260 232.0203 0056092 345.7336  14.2266 14.40306397924905
1 01430U 65051A   21109.60758248  .00000021  00000-0  20080-4 0  9995
2 01430  98.3261 232.4258 0056067 344.4745  15.4722 14.40306446924525
1 01430U 65051A   21109.88546075  .00000020  00000-0  19638-4 0  9994
2 01430  98.3262 232.6962 0056050 343.6314  16.3063 14.40306491924567
1  1430U 65051A   21110.30227816  .00000019  00000-0  19472-4 0  9996
2  1430  98.3262 233.1017 0056026 342.3656  17.5586 14.40306536925061
1 01430U 65051A   21110.58015642  .00000021  00000-0  20040-4 0  9994
2 01430  98.3263 233.3721 0056007 341.5236  18.3918 14.40306578924669
1 01430U 65051A   21110.92750429  .00000018  00000-0  18914-4 0  9994
2 01430  98.3263 233.7101 0055986 340.4733  19.4311 14.40306609924710
1 01430U 65051A   21111.48326084  .00000018  00000-0  19149-4 0  9993
2 01430  98.3265 234.2509 0055947 338.7913  21.0957 14.40306689924798
1  1430U 65051A   21111.48326084  .00000018  00000-0  19149-4 0  9993
2  1430  98.3265 234.2509 0055947 338.7913  21.0957 14.40306689925238
1 01430U 65051A   21111.83060870  .00000018  00000-0  18932-4 0  9999
2 01430  98.3265 234.5889 0055926 337.7362  22.1400 14.40306740924845
1 01430U 65051A   21112.59477398  .00000014  00000-0  17646-4 0  9997
2 01430  98.3267 235.3325 0055882 335.4071  24.4455 14.40306811924950
1 01430U 65051A   21112.87265227  .00000011  00000-0  16914-4 0  9998
2 01430  98.3267 235.6029 0055866 334.5625  25.2816 14.40306853924991
1  1430U 65051A   21112.87265227  .00000011  00000-0  16914-4 0  9998
2  1430  98.3267 235.6029 0055866 334.5625  25.2816 14.40306853925431
1 01430U 65051A   21113.28946975  .00000006  00000-0  15337-4 0  9992
2 01430  98.3267 236.0085 0055842 333.2928  26.5388 14.40306868925056
1 01430U 65051A   21113.77575678  .00000008  00000-0  16054-4 0  9993
2 01430  98.3268 236.4817 0055816 331.8082  28.0088 14.40306952925126
1  1430U 65051A   21114.05363508  .00000010  00000-0  16484-4 0  9992
2  1430  98.3269 236.7521 0055800 330.9640  28.8449 14.40306982925600
1 01430U 65051A   21114.60939174  .00000008  00000-0  15837-4 0  9999
2 01430  98.3270 237.2929 0055767 329.2700  30.5227 14.40307053925244
1 01430U 65051A   21114.88727009  .00000007  00000-0  15488-4 0  9992
2 01430  98.3271 237.5633 0055751 328.4197  31.3650 14.40307089925286
1  1430U 65051A   21115.09567888  .00000005  00000-0  15032-4 0  9996
2  1430  98.3271 237.7661 0055738 327.7879  31.9910 14.40307086925757
1 01430U 65051A   21115.58196602  .00000009  00000-0  16215-4 0  9990
2 01430  98.3272 238.2393 0055711 326.3085  33.4567 14.40307168925386
1 01430U 65051A   21115.92931400  .00000008  00000-0  15912-4 0  9993
2 01430  98.3272 238.5773 0055692 325.2564  34.4992 14.40307213925439
1  1430U 65051A   21116.13772280  .00000008  00000-0  16002-4 0  9997
2  1430  98.3272 238.7801 0055678 324.6205  35.1295 14.40307223925909
1 01430U 65051A   21116.62400999  .00000012  00000-0  17331-4 0  9997
2 01430  98.3273 239.2534 0055650 323.1376  36.5992 14.40307306925532
1 01430U 65051A   21116.69347960  .00000012  00000-0  17308-4 0  9996
2 01430  98.3273 239.3210 0055647 322.9244  36.8106 14.40307320925548
1  1430U 65051A   21117.31870606  .00000012  00000-0  17300-4 0  9996
2  1430  98.3274 239.9294 0055616 321.0154  38.7031 14.40307382926078
1 01430U 65051A   21117.59658452  .00000012  00000-0  17091-4 0  9996
2 01430  98.3275 240.1998 0055601 320.1691  39.5422 14.40307400925673
1 01430U 65051A   21118.22181107  .00000014  00000-0  17753-4 0  9992
2 01430  98.3276 240.8083 0055574 318.2561  41.4394 14.40307469925764
1 01430U 65051A   21118.56915918  .00000014  00000-0  17680-4 0  9993
2 01430  98.3277 241.1463 0055555 317.1970  42.4899 14.40307504925819
1  1430U 65051A   21118.56915918  .00000014  00000-0  17680-4 0  9993
2  1430  98.3277 241.1463 0055555 317.1970  42.4899 14.40307504926258
1 01430U 65051A   21119.47226431  .00000020  00000-0  19586-4 0  9993
2 01430  98.3279 242.0253 0055510 314.4363  45.2290 14.40307637925942
1  1430U 65051A   21120.30589995  .00000023  00000-0  20726-4 0  9995
2  1430  98.3280 242.8366 0055477 311.8822  47.7641 14.40307751926507
1 01430U 65051A   21120.58377851  .00000024  00000-0  20951-4 0  9992
2 01430  98.3281 243.1070 0055464 311.0314  48.6087 14.40307779926108
1 01430U 65051A   21120.93112676  .00000022  00000-0  20383-4 0  9990
2 01430  98.3282 243.4451 0055448 309.9713  49.6613 14.40307816926159
1 01430U 65051A   21121.34794467  .00000024  00000-0  21023-4 0  9994
2 01430  98.3282 243.8507 0055431 308.6908  50.9330 14.40307875926212
1  1430U 65051A   21121.34794467  .00000024  00000-0  21023-4 0  9994
2  1430  98.3282 243.8507 0055431 308.6908  50.9330 14.40307875926650
1 01430U 65051A   21121.90370196  .00000025  00000-0  21279-4 0  9999
2 01430  98.3284 244.3916 0055419 306.9816  52.6307 14.40307929926290
1 01430U 65051A   21122.59839860  .00000026  00000-0  21422-4 0  9994
2 01430  98.3285 245.0678 0055394 304.8483  54.7504 14.40308012926390
1  1430U 65051A   21122.87627728  .00000023  00000-0  20657-4 0  9999
2  1430  98.3285 245.3382 0055385 303.9953  55.5981 14.40308051926871
1 01430U 65051A   21122.94574695  .00000023  00000-0  20684-4 0  9991
2 01430  98.3285 245.4058 0055384 303.7818  55.8103 14.40308052926442
1 01430U 65051A   21123.57097407  .00000021  00000-0  20156-4 0  9994
2 01430  98.3287 246.0143 0055367 301.8604  57.7203 14.40308109926534
1 01430U 65051A   21123.91832251  .00000020  00000-0  19651-4 0  9993
2 01430  98.3287 246.3524 0055358 300.7965  58.7781 14.40308148926588
1  1430U 65051A   21124.19620129  .00000017  00000-0  18889-4 0  9991
2  1430  98.3288 246.6229 0055346 299.9421  59.6279 14.40308155927061
1 01430U 65051A   21124.61301945  .00000014  00000-0  17764-4 0  9998
2 01430  98.3288 247.0286 0055333 298.6611  60.9021 14.40308196926684
1 01430U 65051A   21124.89089825  .00000012  00000-0  17219-4 0  9991
2 01430  98.3289 247.2991 0055326 297.8076  61.7511 14.40308237926722
1 01430U 65051A   21125.30771647  .00000013  00000-0  17529-4 0  9993
2 01430  98.3289 247.7047 0055315 296.5253  63.0271 14.40308296926789
1  1430U 65051A   21125.30771647  .00000013  00000-0  17529-4 0  9993
2  1430  98.3289 247.7047 0055315 296.5253  63.0271 14.40308296927229
1 01430U 65051A   21125.93294388  .00000012  00000-0  17173-4 0  9998
2 01430  98.3290 248.3133 0055294 294.6087  64.9347 14.40308379926870
1 01430U 65051A   21126.62764115  .00000010  00000-0  16567-4 0  9999
2 01430  98.3291 248.9895 0055273 292.4748  67.0594 14.40308444926971
1  1430U 65051A   21126.62764115  .00000010  00000-0  16567-4 0  9999
2  1430  98.3291 248.9895 0055273 292.4748  67.0594 14.40308444927411
1 01430U 65051A   21126.90552008  .00000009  00000-0  16231-4 0  9992
2 01430  98.3292 249.2599 0055270 291.6193  67.9114 14.40308479927010
1 01430U 65051A   21127.60021752  .00000003  00000-0  14524-4 0  9994
2 01430  98.3293 249.9361 0055251 289.4852  70.0373 14.40308526927117
1 01430U 65051A   21127.87809652  .00000000  00000-0  13547-4 0  9997
2 01430  98.3293 250.2066 0055247 288.6296  70.8898 14.40308555927158
1  1430U 65051A   21127.87809652  .00000000  00000-0  13547-4 0  9997
2  1430  98.3293 250.2066 0055247 288.6296  70.8898 14.40308555927596
1 01430U 65051A   21128.57279410  .00000001  00000-0  13681-4 0  9998
2 01430  98.3294 250.8828 0055239 286.4916  73.0208 14.40308617927257
1 01430U 65051A   21128.92014296 -.00000001  00000-0  13121-4 0  9996
2 01430  98.3295 251.2209 0055234 285.4235  74.0856 14.40308642927308
1  1430U 65051A   21129.05908252 -.00000001  00000-0  13141-4 0  9997
2  1430  98.3295 251.3561 0055231 284.9941  74.5139 14.40308639927760
1 01430U 65051A   21129.26749186 -.00000002  00000-0  12899-4 0  9999
2 01430  98.3295 251.5590 0055228 284.3531  75.1531 14.40308664927355
1 01430U 65051A   21129.61484078 -.00000004  00000-0  12378-4 0  9998
2 01430  98.3296 251.8971 0055220 283.2844  76.2190 14.40308682927408
1 01430U 65051A   21129.89271993 -.00000005  00000-0  11898-4 0  9995
2 01430  98.3297 252.1676 0055217 282.4284  77.0729 14.40308711927444
1  1430U 65051A   21130.10112932 -.00000006  00000-0  11666-4 0  9992
2  1430  98.3297 252.3705 0055217 281.7852  77.7147 14.40308708927911
1 01430U 65051A   21130.30953871 -.00000005  00000-0  12010-4 0  9992
2 01430  98.3297 252.5733 0055217 281.1436  78.3548 14.40308743927502
1 01430U 65051A   21130.93476697 -.00000006  00000-0  11649-4 0  9995
2 01430  98.3299 253.1819 0055212 279.2196  80.2751 14.40308787927597
1 01430U 65051A   21131.28211605 -.00000002  00000-0  12933-4 0  9993
2 01430  98.3299 253.5200 0055211 278.1492  81.3437 14.40308836927645
1  1430U 65051A   21131.28211605 -.00000002  00000-0  12933-4 0  9993
2  1430  98.3299 253.5200 0055211 278.1492  81.3437 14.40308836928084
1 01430U 65051A   21131.62946519 -.00000003  00000-0  12591-4 0  9991
2 01430  98.3300 253.8582 0055204 277.0820  82.4094 14.40308845927695
1  1430U 65051A   21132.32416351 -.00000001  00000-0  13075-4 0  9991
2  1430  98.3301 254.5344 0055213 274.9381  84.5506 14.40308913928236
1 01430U 65051A   21132.60204287  .00000005  00000-0  14947-4 0  9997
2 01430  98.3302 254.8049 0055210 274.0819  85.4061 14.40308963927832
1 01430U 65051A   21132.87992223  .00000012  00000-0  17339-4 0  9996
2 01430  98.3303 255.0754 0055210 273.2261  86.2612 14.40309050927874
1 01430U 65051A   21133.36621121  .00000009  00000-0  16401-4 0  9992
2 01430  98.3303 255.5487 0055216 271.7314  87.7551 14.40309071927949
